[{"OBJECT_NAME":"SHIJIAN-6 02B (SJ-6 02B)","OBJECT_ID":"2006-046B","EPOCH":"2026-03-09T23:09:06.940224","MEAN_MOTION":15.01001333,"ECCENTRICITY":0.00140021,"INCLINATION":97.7065,"RA_OF_ASC_NODE":98.697,"ARG_OF_PERICENTER":42.7506,"MEAN_ANOMALY":317.4805,"EPHEMERIS_TYPE":0,"CLASSIFICATION_TYPE":"U","NORAD_CAT_ID":29506,"ELEMENT_SET_NO":999,"REV_AT_EPOCH":5585,"BSTAR":0.00024683398,"MEAN_MOTION_DOT":3.096e-5,"MEAN_MOTION_DDOT":0},{"OBJECT_NAME":"STARLINK-6231","OBJECT_ID":"2023-078N","EPOCH":"2026-03-09T21:23:57.873984","MEAN_MOTION":14.98330383,"ECCENTRICITY":0.00028313,"INCLINATION":70.0003,"RA_OF_ASC_NODE":323.953,"ARG_OF_PERICENTER":273.9274,"MEAN_ANOMALY":86.1561,"EPHEMERIS_TYPE":0,"CLASSIFICATION_TYPE":"U","NORAD_CAT_ID":56779,"ELEMENT_SET_NO":999,"REV_AT_EPOCH":15319,"BSTAR":9.082071e-6,"MEAN_MOTION_DOT":1.5e-7,"MEAN_MOTION_DDOT":0}]
